[{"OBJECT_NAME":"STARLINK-1246","OBJECT_ID":"2020-012BK","EPOCH":"2026-03-09T07:11:40.046784","MEAN_MOTION":15.30215288,"ECCENTRICITY":0.0001484,"INCLINATION":53.1615,"RA_OF_ASC_NODE":41.0601,"ARG_OF_PERICENTER":96.3755,"MEAN_ANOMALY":263.7415,"EPHEMERIS_TYPE":0,"CLASSIFICATION_TYPE":"U","NORAD_CAT_ID":45235,"ELEMENT_SET_NO":999,"REV_AT_EPOCH":33491,"BSTAR":0.00020978976,"MEAN_MOTION_DOT":5.862e-5,"MEAN_MOTION_DDOT":0},{"OBJECT_NAME":"TIANMU-1 20","OBJECT_ID":"2023-208B","EPOCH":"2026-03-09T21:50:45.859200","MEAN_MOTION":15.31029249,"ECCENTRICITY":0.00061925,"INCLINATION":97.4323,"RA_OF_ASC_NODE":185.4313,"ARG_OF_PERICENTER":324.1763,"MEAN_ANOMALY":35.9062,"EPHEMERIS_TYPE":0,"CLASSIFICATION_TYPE":"U","NORAD_CAT_ID":58661,"ELEMENT_SET_NO":999,"REV_AT_EPOCH":12222,"BSTAR":0.0003681641,"MEAN_MOTION_DOT":0.00010969,"MEAN_MOTION_DDOT":0}]
